GPS BIIR-08             
1 27663U 03005A   26117.26422243 -.00000045  00000+0  00000+0 0  9992
2 27663  54.8924 216.9917 0148189  52.9628 318.0481  2.00563298170295
GPS BIIR-11             
1 28190U 04009A   26116.53875589 -.00000049  00000+0  00000+0 0  9991
2 28190  54.8736 277.7725 0113683 170.8393 190.7377  2.00556343161915
GPS BIIR-13             
1 28474U 04045A   26117.19938378 -.00000076  00000+0  00000+0 0  9995
2 28474  55.1651 326.9497 0170076 315.0111 228.8065  2.00553547157402
GPS BIIR-14M            
1 28874U 05038A   26116.51028610 -.00000049  00000+0  00000+0 0  9996
2 28874  54.9216 275.2615 0127781 295.8485  71.6096  2.00569234150807
METEOSAT-9 (MSG-2)      
1 28912U 05049B   26116.93089426  .00000118  00000+0  00000+0 0  9995
2 28912   9.2489  54.6630 0000512 343.3476 197.6940  1.00275091  6487
GPS BIIR-16M            
1 29601U 06052A   26114.57003035 -.00000038  00000+0  00000+0 0  9998
2 29601  54.9441 216.1310 0086480  90.2480 270.7556  2.00555028142332
GPS BIIR-17M            
1 32260U 07047A   26116.86945643  .00000003  00000+0  00000+0 0  9993
2 32260  54.0586  82.1794 0164787  86.5004 275.3611  2.00557863135785
GPS BIIR-18M            
1 32384U 07062A   26116.93297485 -.00000052  00000+0  00000+0 0  9994
2 32384  55.0742 276.2115 0034581 162.4186  10.5045  2.00556888134485
GOES 14                 
1 35491U 09033A   26117.29830434 -.00000059  00000+0  00000+0 0  9990
2 35491   1.5607  83.6238 0001781 314.8685  94.4913  1.00116791  6085
GOES 15                 
1 36411U 10008A   26117.08288887  .00000013  00000+0  00000+0 0  9992
2 36411   1.1431  83.7693 0003990  23.6677 200.7369  1.00272555 59126
GSAT0101 (GALILEO-PFM)  
1 37846U 11060A   26116.22899249 -.00000091  00000+0  00000+0 0  9996
2 37846  57.0096 343.1709 0003765  27.2500 332.8105  1.70475694 90230
GSAT0102 (GALILEO-FM2)  
1 37847U 11060B   26116.45263183 -.00000091  00000+0  00000+0 0  9994
2 37847  57.0107 343.1653 0004708   9.1421 173.7389  1.70475958 90241
LUCH 5A                 
1 37951U 11074B   26117.10739284 -.00000054  00000+0  00000+0 0  9997
2 37951   8.6271  74.5436 0002752 305.3035  40.8405  1.00273004 52538
METEOSAT-10 (MSG-3)     
1 38552U 12035B   26117.12058762 -.00000014  00000+0  00000+0 0  9996
2 38552   4.5534  61.2362 0002096 313.1941 244.2674  1.00268137 50344
SARSAT 13 (METOP-B)     
1 38771U 12049A   26117.22614148  .00000123  00000+0  76174-4 0  9991
2 38771  98.6547 169.7314 0003420 122.5374 237.6134 14.21433454706023
GPS BIIF-3              
1 38833U 12053A   26113.97246792  .00000040  00000+0  00000+0 0  9997
2 38833  53.5743 145.8203 0177937  65.1328 296.7656  2.00566553 98354
GSAT0103 (GALILEO-FM3)  
1 38857U 12055A   26116.85598551  .00000044  00000+0  00000+0 0  9992
2 38857  55.7754 102.9524 0005911 295.7911  64.1419  1.70473386 84139
